KUZGTU 1 (RS47S)        
1 57217U 23091AV  26175.22862594  .00010234  00000+0  35426-3 0  9998
2 57217  97.5065 239.7805 0012074  76.3028 283.9556 15.29995720165458
SONATE-2                
1 59112U 24043Q   26175.26319483  .00037305  00000+0  47564-3 0  9994
2 59112  97.5534 326.0961 0007286 172.1675 187.9696 15.59193494128997
MESAT1                  
1 60209U 24125G   26175.14632091  .00056442  00000+0  59813-3 0  9997
2 60209  97.2288  32.7906 0010249 178.6404 181.4885 15.63886382110656
OOV-CUBE (TUBSAT-30)    
1 60240U 24128F   26175.17509553  .00001358  00000+0  11477-3 0  9994
2 60240  61.9924 201.2058 0043766 135.3131 225.1501 15.02794999107162
COLIBRI-S (RS67S)       
1 61746U 24199M   26175.23778606  .00019381  00000+0  37223-3 0  9990
2 61746  97.2991  49.1570 0006446 244.1311 115.9275 15.47977388138501
HORS 3 (RS81S)          
1 61753U 24199U   26175.23164104  .00031841  00000+0  46819-3 0  9996
2 61753  97.2974  51.2144 0004088 236.4114 123.6750 15.55402500138654
HORS 4 (RS82S)          
1 61754U 24199V   26175.23479727  .00044147  00000+0  54009-3 0  9990
2 61754  97.2919  52.4652 0003946 218.6754 141.4221 15.60272291138744
SIT-2086                
1 61764U 24199AF  26175.28285332  .00031078  00000+0  48931-3 0  9999
2 61764  97.2935  51.7183 0005400 217.6201 142.4676 15.53517657135536
HYPERVIEW 1G (RS66S)    
1 61772U 24199AP  26175.23430535  .00142836  00000+0  84550-3 0  9992
2 61772  97.2862  55.3183 0005460 194.3108 165.8005 15.77659716135788
ALTAIR (RS65S)          
1 61779U 24199AW  26175.27312005  .00009620  00000+0  26639-3 0  9991
2 61779  97.3029  44.5774 0010760 281.6639  78.3398 15.37130686138204
ASRTU-1 (AO-123)        
1 61781U 24199AY  26175.26726105  .00006696  00000+0  19440-3 0  9995
2 61781  97.3000  43.8743 0011938 285.0984  74.8939 15.35762632135011
SAMSAT-IONOSPHERE (RS7*)
1 61784U 24199BB  26175.25339085  .00043888  00000+0  58068-3 0  9997
2 61784  97.2942  51.3092 0006320 240.5782 119.4843 15.58180702138661
RTU MIREA 1 (RS51S)     
1 61785U 24199BC  26175.26184879  .00053652  00000+0  61831-3 0  9990
2 61785  97.2931  52.1865 0006202 231.8723 128.1977 15.61779261135574
TEVEL2-4                
1 63213U 25052D   26175.15869639  .00016841  00000+0  50050-3 0  9999
2 63213  97.3899  71.5621 0004948  90.1777 270.0033 15.34822563 71181
TEVEL2-5                
1 63214U 25052E   26174.98437719  .00016638  00000+0  49735-3 0  9992
2 63214  97.3894  71.3335 0004879  91.6440 268.5362 15.34639902 71150
TEVEL2-6                
1 63215U 25052F   26175.19247918  .00016897  00000+0  50551-3 0  9992
2 63215  97.3902  71.5263 0004712  91.8606 268.3176 15.34612208 71189
TEVEL2-1                
1 63217U 25052H   26174.96304379  .00015378  00000+0  46842-3 0  9994
2 63217  97.3870  70.9129 0004942 100.4498 259.7302 15.34061026 71136
TEVEL2-3                
1 63218U 25052J   26174.95743908  .00015464  00000+0  47017-3 0  9990
2 63218  97.3876  70.9298 0004852 100.9401 259.2388 15.34118051 71139
TEVEL2-2                
1 63219U 25052K   26174.96331783  .00015328  00000+0  46676-3 0  9995
2 63219  97.3875  70.9156 0004967 100.9332 259.2469 15.34070494 71130
TEVEL2-9                
1 63237U 25052AD  26175.21077817  .00014542  00000+0  47113-3 0  9993
2 63237  97.3939  70.5233 0008236 111.7825 248.4294 15.32082358 71106
TEVEL2-7                
1 63238U 25052AE  26174.66511354  .00012446  00000+0  40771-3 0  9995
2 63238  97.3941  69.8919 0008290 113.4971 246.7143 15.31764216 71016
TEVEL2-8                
1 63239U 25052AF  26175.19604222  .00014524  00000+0  47520-3 0  9990
2 63239  97.3938  70.3983 0008326 112.7098 247.5025 15.31766604 71092
INNOSAT 16 (RS92S7)     
1 64878U 25155C   26175.21749260  .00004876  00000+0  19495-3 0  9998
2 64878  97.4563 142.3227 0011342 151.9453 208.2399 15.25520408 81744
GEOSCAN 6 (RS92S6)      
1 64879U 25155D   26175.24399507  .00008774  00000+0  30193-3 0  9996
2 64879  97.4554 143.8232 0009139 140.6724 219.5182 15.30263354 81840
GEOSCAN 1 (RS92S1)      
1 64880U 25155E   26175.24367733  .00009758  00000+0  32923-3 0  9990
2 64880  97.4551 143.9770 0009087 140.4852 219.7053 15.30871421 81859
239ALFEROV (RS61S)      
1 64881U 25155F   26175.26841962  .00013161  00000+0  41329-3 0  9997
2 64881  97.4550 144.5873 0008825 138.2665 221.9252 15.33103915 81895
GEOSCAN 2 (RS92S2)      
1 64890U 25155Q   26175.23611221  .00009502  00000+0  31802-3 0  9996
2 64890  97.4550 144.1248 0008774 129.0864 231.1159 15.31141993 81861
GEOSCAN 5 (RS92S5)      
1 64891U 25155R   26175.25598125  .00012632  00000+0  39300-3 0  9995
2 64891  97.4543 144.7149 0007608 141.6216 218.5569 15.33419871 81900
GEOSCAN 4 (RS92S4)      
1 64892U 25155S   26175.23945726  .00012789  00000+0  39589-3 0  9999
2 64892  97.4547 144.7488 0007668 141.2322 218.9472 15.33577998 81903
GEOSCAN 3 (RS92S3)      
1 64893U 25155T   26175.23102742  .00016010  00000+0  46418-3 0  9993
2 64893  97.4534 145.1903 0007640 140.0007 220.1800 15.35597593 81932
