OBJECT_NAME,OBJECT_ID,EPOCH,MEAN_MOTION,ECCENTRICITY,INCLINATION,RA_OF_ASC_NODE,ARG_OF_PERICENTER,MEAN_ANOMALY,EPHEMERIS_TYPE,CLASSIFICATION_TYPE,NORAD_CAT_ID,ELEMENT_SET_NO,REV_AT_EPOCH,BSTAR,MEAN_MOTION_DOT,MEAN_MOTION_DDOT
KUZGTU 1 (RS47S),2023-091AV,2026-06-24T05:29:13.281216,15.29995720,.00120745,97.5065,239.7805,76.3028,283.9556,0,U,57217,999,16545,.35425922E-3,.10234E-3,0
SONATE-2,2024-043Q,2026-06-24T06:19:00.033312,15.59193494,.00072861,97.5534,326.0961,172.1675,187.9696,0,U,59112,999,12899,.47564085E-3,.37305E-3,0
MESAT1,2024-125G,2026-06-24T03:30:42.126624,15.63886382,.00102494,97.2288,32.7906,178.6404,181.4885,0,U,60209,999,11065,.59812847E-3,.56442E-3,0
OOV-CUBE (TUBSAT-30),2024-128F,2026-06-24T04:12:08.253792,15.02794999,.00437661,61.9924,201.2058,135.3131,225.1501,0,U,60240,999,10716,.11476558E-3,.1358E-4,0
COLIBRI-S (RS67S),2024-199M,2026-06-24T05:42:24.715584,15.47977388,.00064469,97.2991,49.1570,244.1311,115.9275,0,U,61746,999,13850,.37223091E-3,.19381E-3,0
HORS 3 (RS81S),2024-199U,2026-06-24T05:33:33.785856,15.55402500,.00040885,97.2974,51.2144,236.4114,123.6750,0,U,61753,999,13865,.46819467E-3,.31841E-3,0
HORS 4 (RS82S),2024-199V,2026-06-24T05:38:06.484128,15.60272291,.00039467,97.2919,52.4652,218.6754,141.4221,0,U,61754,999,13874,.54008914E-3,.44147E-3,0
SIT-2086,2024-199AF,2026-06-24T06:47:18.526848,15.53517657,.00054008,97.2935,51.7183,217.6201,142.4676,0,U,61764,999,13553,.48930627E-3,.31078E-3,0
HYPERVIEW 1G (RS66S),2024-199AP,2026-06-24T05:37:23.982240,15.77659716,.00054608,97.2862,55.3183,194.3108,165.8005,0,U,61772,999,13578,.8455012E-3,.142836E-2,0
ALTAIR (RS65S),2024-199AW,2026-06-24T06:33:17.572320,15.37130686,.00107606,97.3029,44.5774,281.6639,78.3398,0,U,61779,999,13820,.26638726E-3,.962E-4,0
ASRTU-1 (AO-123),2024-199AY,2026-06-24T06:24:51.354720,15.35762632,.00119389,97.3000,43.8743,285.0984,74.8939,0,U,61781,999,13501,.19440181E-3,.6696E-4,0
SAMSAT-IONOSPHERE (RS75S),2024-199BB,2026-06-24T06:04:52.969440,15.58180702,.00063208,97.2942,51.3092,240.5782,119.4843,0,U,61784,999,13866,.58067902E-3,.43888E-3,0
RTU MIREA 1 (RS51S),2024-199BC,2026-06-24T06:17:03.735456,15.61779261,.00062028,97.2931,52.1865,231.8723,128.1977,0,U,61785,999,13557,.61830751E-3,.53652E-3,0
TEVEL2-4,2025-052D,2026-06-24T03:48:31.368096,15.34822563,.0004948,97.3899,71.5621,90.1777,270.0033,0,U,63213,999,7118,.50049574E-3,.16841E-3,0
TEVEL2-5,2025-052E,2026-06-23T23:37:30.189216,15.34639902,.00048799,97.3894,71.3335,91.6440,268.5362,0,U,63214,999,7115,.49734829E-3,.16638E-3,0
TEVEL2-6,2025-052F,2026-06-24T04:37:10.201152,15.34612208,.0004712,97.3902,71.5263,91.8606,268.3176,0,U,63215,999,7118,.50550692E-3,.16897E-3,0
TEVEL2-1,2025-052H,2026-06-23T23:06:46.983456,15.34061026,.0004942,97.3870,70.9129,100.4498,259.7302,0,U,63217,999,7113,.46841874E-3,.15378E-3,0
TEVEL2-3,2025-052J,2026-06-23T22:58:42.736512,15.34118051,.00048523,97.3876,70.9298,100.9401,259.2388,0,U,63218,999,7113,.47017444E-3,.15464E-3,0
TEVEL2-2,2025-052K,2026-06-23T23:07:10.660512,15.34070494,.00049675,97.3875,70.9156,100.9332,259.2469,0,U,63219,999,7113,.46675971E-3,.15328E-3,0
TEVEL2-9,2025-052AD,2026-06-24T05:03:31.233888,15.32082358,.00082367,97.3939,70.5233,111.7825,248.4294,0,U,63237,999,7110,.4711308E-3,.14542E-3,0
TEVEL2-7,2025-052AE,2026-06-23T15:57:45.809856,15.31764216,.00082901,97.3941,69.8919,113.4971,246.7143,0,U,63238,999,7101,.40770733E-3,.12446E-3,0
TEVEL2-8,2025-052AF,2026-06-24T04:42:18.047808,15.31766604,.00083263,97.3938,70.3983,112.7098,247.5025,0,U,63239,999,7109,.47519501E-3,.14524E-3,0
INNOSAT 16 (RS92S7),2025-155C,2026-06-24T05:13:11.360640,15.25520408,.00113421,97.4563,142.3227,151.9453,208.2399,0,U,64878,999,8174,.19495387E-3,.4876E-4,0
GEOSCAN 6 (RS92S6),2025-155D,2026-06-24T05:51:21.174048,15.30263354,.00091397,97.4554,143.8232,140.6724,219.5182,0,U,64879,999,8184,.3019349E-3,.8774E-4,0
GEOSCAN 1 (RS92S1),2025-155E,2026-06-24T05:50:53.721312,15.30871421,.00090874,97.4551,143.9770,140.4852,219.7053,0,U,64880,999,8185,.32923025E-3,.9758E-4,0
239ALFEROV (RS61S),2025-155F,2026-06-24T06:26:31.455168,15.33103915,.0008825,97.4550,144.5873,138.2665,221.9252,0,U,64881,999,8189,.41329192E-3,.13161E-3,0
GEOSCAN 2 (RS92S2),2025-155Q,2026-06-24T05:40:00.094944,15.31141993,.00087743,97.4550,144.1248,129.0864,231.1159,0,U,64890,999,8186,.31802287E-3,.9502E-4,0
GEOSCAN 5 (RS92S5),2025-155R,2026-06-24T06:08:36.780000,15.33419871,.00076087,97.4543,144.7149,141.6216,218.5569,0,U,64891,999,8190,.39299744E-3,.12632E-3,0
GEOSCAN 4 (RS92S4),2025-155S,2026-06-24T05:44:49.107264,15.33577998,.00076688,97.4547,144.7488,141.2322,218.9472,0,U,64892,999,8190,.39588709E-3,.12789E-3,0
GEOSCAN 3 (RS92S3),2025-155T,2026-06-24T05:32:40.769088,15.35597593,.00076405,97.4534,145.1903,140.0007,220.1800,0,U,64893,999,8193,.46418326E-3,.1601E-3,0
